[{"OBJECT_NAME":"STARLINK-33969","OBJECT_ID":"2025-093V","EPOCH":"2026-03-09T10:23:45.657312","MEAN_MOTION":15.27600671,"ECCENTRICITY":0.00031189,"INCLINATION":43.0041,"RA_OF_ASC_NODE":79.2681,"ARG_OF_PERICENTER":285.4479,"MEAN_ANOMALY":74.6028,"EPHEMERIS_TYPE":0,"CLASSIFICATION_TYPE":"U","NORAD_CAT_ID":63855,"ELEMENT_SET_NO":999,"REV_AT_EPOCH":4771,"BSTAR":0.00082373197,"MEAN_MOTION_DOT":0.0002249,"MEAN_MOTION_DDOT":0},{"OBJECT_NAME":"CZ-6A DEB","OBJECT_ID":"2024-140UQ","EPOCH":"2026-03-09T14:36:35.114400","MEAN_MOTION":15.29987293,"ECCENTRICITY":0.0094347,"INCLINATION":89.0483,"RA_OF_ASC_NODE":279.5661,"ARG_OF_PERICENTER":66.0307,"MEAN_ANOMALY":295.0787,"EPHEMERIS_TYPE":0,"CLASSIFICATION_TYPE":"U","NORAD_CAT_ID":61327,"ELEMENT_SET_NO":999,"REV_AT_EPOCH":8299,"BSTAR":0.0015211,"MEAN_MOTION_DOT":0.00050856,"MEAN_MOTION_DDOT":0}]
